[{"OBJECT_NAME":"STARLINK-30971","OBJECT_ID":"2023-183G","EPOCH":"2026-03-09T22:00:01.999584","MEAN_MOTION":15.26725568,"ECCENTRICITY":0.00013439,"INCLINATION":43.0006,"RA_OF_ASC_NODE":40.3559,"ARG_OF_PERICENTER":265.7456,"MEAN_ANOMALY":277.1828,"EPHEMERIS_TYPE":0,"CLASSIFICATION_TYPE":"U","NORAD_CAT_ID":58443,"ELEMENT_SET_NO":999,"REV_AT_EPOCH":578,"BSTAR":0.0011226835,"MEAN_MOTION_DOT":0.00029964,"MEAN_MOTION_DDOT":0},{"OBJECT_NAME":"SL-3 R\/B","OBJECT_ID":"1982-027B","EPOCH":"2026-03-09T22:44:40.208640","MEAN_MOTION":15.28335844,"ECCENTRICITY":0.00065199,"INCLINATION":81.188,"RA_OF_ASC_NODE":37.4466,"ARG_OF_PERICENTER":276.581,"MEAN_ANOMALY":83.4683,"EPHEMERIS_TYPE":0,"CLASSIFICATION_TYPE":"U","NORAD_CAT_ID":13121,"ELEMENT_SET_NO":999,"REV_AT_EPOCH":39859,"BSTAR":0.00030526741,"MEAN_MOTION_DOT":8.453e-5,"MEAN_MOTION_DDOT":0}]
